[{"OBJECT_NAME":"GAOFEN-9 03","OBJECT_ID":"2020-039A","EPOCH":"2026-03-09T21:55:15.121344","MEAN_MOTION":15.30529116,"ECCENTRICITY":0.0013094,"INCLINATION":97.5219,"RA_OF_ASC_NODE":201.2158,"ARG_OF_PERICENTER":77.4533,"MEAN_ANOMALY":282.8172,"EPHEMERIS_TYPE":0,"CLASSIFICATION_TYPE":"U","NORAD_CAT_ID":45794,"ELEMENT_SET_NO":999,"REV_AT_EPOCH":31856,"BSTAR":0.00039258132,"MEAN_MOTION_DOT":0.00011544,"MEAN_MOTION_DDOT":0},{"OBJECT_NAME":"USA 40 R\/B DEB","OBJECT_ID":"1989-061BF","EPOCH":"2026-03-09T11:01:29.535168","MEAN_MOTION":9.58078532,"ECCENTRICITY":0.26908089,"INCLINATION":57,"RA_OF_ASC_NODE":145.4523,"ARG_OF_PERICENTER":62.5186,"MEAN_ANOMALY":322.3123,"EPHEMERIS_TYPE":0,"CLASSIFICATION_TYPE":"U","NORAD_CAT_ID":23383,"ELEMENT_SET_NO":999,"REV_AT_EPOCH":23463,"BSTAR":0.0027511821,"MEAN_MOTION_DOT":6.281e-5,"MEAN_MOTION_DDOT":0}]
